#aV2011 10  1  0  0   .00000000      96 DD+AD WGS84 FIT  NGA
## 1655 518400.00000000   900.00000000 55835  .0000000000000
+   32     1  2  3  4  5  6  7  8  9 10 11 12 13 14 15 16 17
+         18 19 20 21 22 23 24 25 26 27 28 29 30 31 32  0  0
+          0  0  0  0  0  0  0  0  0  0  0  0  0  0  0  0  0
+          0  0  0  0  0  0  0  0  0  0  0  0  0  0  0  0  0
+          0  0  0  0  0  0  0  0  0  0  0  0  0  0  0  0  0
++         0  0  0  0  0  0  0  0  0  0  0  0  0  0  0  0  0
++         0  0  0  0  0  0  0  0  0  0  0  0  0  0  0  0  0
++         0  0  0  0  0  0  0  0  0  0  0  0  0  0  0  0  0
++         0  0  0  0  0  0  0  0  0  0  0  0  0  0  0  0  0
++         0  0  0  0  0  0  0  0  0  0  0  0  0  0  0  0  0
%c cc cc ccc ccc cccc cccc cccc cccc ccccc ccccc ccccc ccccc
%c cc cc ccc ccc cccc cccc cccc cccc ccccc ccccc ccccc ccccc
%f  0.0000000  0.000000000  0.00000000000  0.000000000000000
%f  0.0000000  0.000000000  0.00000000000  0.000000000000000
%i    0    0    0    0      0      0      0      0         0
%i    0    0    0    0      0      0      0      0         0
/*      NGA, ST. LOUIS,MO.                                  
/*   EPHEMERIS COMPUTED FROM  3 DAYS OF DATA                
/* CCCCCCCCCCCCCCCCCCCCCCCCCCCCCCCCCCCCCCCCCCCCCCCCCCCCCCCCC
/* CCCCCCCCCCCCCCCCCCCCCCCCCCCCCCCCCCCCCCCCCCCCCCCCCCCCCCCCC
*  2011 10  1 21 45   .00000000                                                 
P  1  22659.628073  13632.970037  -2488.697183     -4.906434                    
V  1  -4083.697099   1055.044428 -31543.557628      -.015673                    
P  2  -5359.967607 -18168.439290  18875.738920    358.800464                    
V  2  21814.203353   9437.160919  14843.162874       .018116                    
P  3  -2993.525030  19760.544233 -17797.886344    775.666404                    
V  3 -18282.505625  12331.236460  17502.244304       .050017                    
P  4  11010.635403 -11606.988240  21011.848689    247.866535                    
V  4  23912.765886  13076.483032  -4912.856177       .112766                    
P  5  -2171.897285 -26364.846817  -1513.065164   -225.940858                    
V  5   3080.184381  -2045.261857  31580.187794      -.051967                    
P  6  -8677.675335  19813.392597 -15109.155488    -58.159569                    
V  6 -17557.295334   9126.899897  22102.967502       .080369                    
P  7  23787.811198   4128.490719 -11329.162948     29.556180                    
V  7  11701.210054   8417.840430  27370.724100       .019371                    
P  8  18965.360651  -2114.695534 -18681.259932       .007148                    
V  8  19429.226595  13264.160763  17624.147154       .000705                    
P  9 -20489.259552 -15584.316057  -7028.685893    109.049340                    
V  9   8155.184064   1999.489652 -30631.628082       .023280                    
P 10  10020.833372 -19528.251366  14454.828575    -14.942133                    
V 10   3058.837081  18874.660092  23405.601897      -.011397                    
P 11  20508.802408  13614.920054 -10741.079176   -190.888599                    
V 11 -13758.504902    962.432806 -25555.940961      -.034607                    
P 12 -11844.198767 -16701.039103  17020.142889     25.870648                    
V 12    924.128616 -21515.389490 -20311.392877       .023653                    
P 13  22994.350137  -2222.813285  13046.876555    248.763958                    
V 13 -14126.653635   9061.230325  26087.984860      -.018964                    
P 14 -21056.125183  15339.308575   4925.635341    174.868443                    
V 14  -6366.710651    968.395956 -31483.493756       .017564                    
P 15 -10571.001797 -11503.255879 -21481.060385   -104.125291                    
V 15  22701.068809 -15224.508759  -2839.988622       .014115                    
P 16   2110.311397  26137.358380  -3028.889554   -200.958841                    
V 16  -2506.139852   3895.543726  32011.379350      -.021644                    
P 17  20676.371096 -15855.526072   4585.133916    172.683191                    
V 17   6378.812686   -359.633880 -31210.488683      -.015984                    
P 18 -15483.554111   3350.947875 -20950.528149    160.062495                    
V 18  -1338.381582 -27517.738160  -3724.160514       .018496                    
P 19   7087.797387  13521.344305 -21760.780586   -189.770658                    
V 19 -24564.713345  12527.662775    141.041450      -.040146                    
P 20  13824.046309  14941.526236  16950.497882     53.740437                    
V 20   -494.032832  21977.625242 -18742.648941       .005516                    
P 21 -23002.783333  -1123.525322 -13295.886592   -175.138192                    
V 21 -14138.226891 -10541.963264  23949.619042      -.024701                    
P 22 -11281.497952  18043.713982 -15645.499325    144.158110                    
V 22  -3140.034151 -20266.043106 -20978.047593      -.001503                    
P 23  17862.247350   4741.956333  19231.094293    271.426525                    
V 23 -20080.120101  13632.189991  14950.350216      -.031274                    
P 24  20736.968829  16221.251060  -4578.155281    428.729450                    
V 24  -6469.368461   -518.184586 -30567.088533       .062280                    
P 25 -15045.748356  -4629.749818  21367.763959     21.350342                    
V 25   -875.969195 -27169.692130  -6468.669512       .017866                    
P 26   2248.059079 -16823.811806 -20918.943549   -176.075291                    
V 26  22749.749327 -11011.397912  12016.892104      -.129927                    
P 27 -17534.489569 -16451.140504 -11045.570604    310.866275                    
V 27  14181.587077   4758.322950 -27612.639557       .038283                    
P 28  12158.184099 -14665.607558 -17871.789744     72.052560                    
V 28   1509.195197  23832.539741 -18250.835887       .032105                    
P 29 -22865.930714   2458.920717  13317.017149    244.679806                    
V 29  13467.125599 -10313.624457  25189.120190       .032525                    
P 30 -13171.660259   9904.439489  20473.532787     76.667138                    
V 30  -4703.927609 -26441.693456   9583.374329      -.072351                    
P 31  -7176.911237  13029.423833  22204.897499    149.393574                    
V 31 -24344.694129 -13108.128101     29.747130       .053771                    
P 32   7893.845962  22389.476632  12609.892469   -338.324876                    
V 32  -2829.703052  15330.512684 -25558.591202      -.064206                    
EOF
